HIMAWARI-8              
1 40267U 14060A   23283.84029559 -.00000277  00000+0  00000+0 0  9995
2 40267   0.0173 132.7889 0000817  79.6411 249.9342  1.00272836 32933
